{
    "links": {
        "self": "http://www.neowsapp.com/rest/v1/neo/3672732?api_key=iIulBulltgU6a56xZRHN4H3l9WmuAYTsLGpBGhQ2"
    },
    "id": "3672732",
    "neo_reference_id": "3672732",
    "name": "(2014 KQ75)",
    "designation": "2014 KQ75",
    "nasa_jpl_url": "http://ssd.jpl.nasa.gov/sbdb.cgi?sstr=3672732",
    "absolute_magnitude_h": 25.3,
    "estimated_diameter": {
        "kilometers": {
            "estimated_diameter_min": 0.0231502122,
            "estimated_diameter_max": 0.0517654482
        },
        "meters": {
            "estimated_diameter_min": 23.150212221,
            "estimated_diameter_max": 51.7654482198
        },
        "miles": {
            "estimated_diameter_min": 0.0143848705,
            "estimated_diameter_max": 0.0321655483
        },
        "feet": {
            "estimated_diameter_min": 75.9521422633,
            "estimated_diameter_max": 169.8341531374
        }
    },
    "is_potentially_hazardous_asteroid": false,
    "close_approach_data": [
        {
            "close_approach_date": "2014-06-01",
            "close_approach_date_full": "2014-Jun-01 05:02",
            "epoch_date_close_approach": 1401598920000,
            "relative_velocity": {
                "kilometers_per_second": "19.258659692",
                "kilometers_per_hour": "69331.1748912407",
                "miles_per_hour": "43079.6958650601"
            },
            "miss_distance": {
                "astronomical": "0.0076743394",
                "lunar": "2.9853180266",
                "kilometers": "1148064.827897078",
                "miles": "713374.4044445564"
            },
            "orbiting_body": "Earth"
        },
        {
            "close_approach_date": "2014-06-01",
            "close_approach_date_full": "2014-Jun-01 08:50",
            "epoch_date_close_approach": 1401612600000,
            "relative_velocity": {
                "kilometers_per_second": "19.9058778397",
                "kilometers_per_hour": "71661.1602228847",
                "miles_per_hour": "44527.458139603"
            },
            "miss_distance": {
                "astronomical": "0.008756654",
                "lunar": "3.406338406",
                "kilometers": "1309976.78672698",
                "miles": "813981.830433124"
            },
            "orbiting_body": "Moon"
        }
    ],
    "orbital_data": {
        "orbit_id": "10",
        "orbit_determination_date": "2017-04-06 08:40:19",
        "first_observation_date": "2014-05-27",
        "last_observation_date": "2014-06-01",
        "data_arc_in_days": 5,
        "observations_used": 57,
        "orbit_uncertainty": "7",
        "minimum_orbit_intersection": ".0110186",
        "jupiter_tisserand_invariant": "3.317",
        "epoch_osculation": "2459000.5",
        "eccentricity": ".6629487526643044",
        "semi_major_axis": "2.189381540664032",
        "inclination": "14.44849534627439",
        "ascending_node_longitude": "68.67007513178879",
        "orbital_period": "1183.261148501195",
        "perihelion_distance": ".7379337791745588",
        "perihelion_argument": "254.2726909288033",
        "aphelion_distance": "3.640829302153505",
        "perihelion_time": "2459222.184774632255",
        "mean_anomaly": "292.5537570732374",
        "mean_motion": ".3042439113766242",
        "equinox": "J2000",
        "orbit_class": {
            "orbit_class_type": "APO",
            "orbit_class_description": "Near-Earth asteroid orbits which cross the Earth’s orbit similar to that of 1862 Apollo",
            "orbit_class_range": "a (semi-major axis) > 1.0 AU; q (perihelion) < 1.017 AU"
        }
    },
    "is_sentry_object": false
}